#aV2020  4  7  0  0  0.00000000     288 DD+AD WGS84 FIT  NGA
## 2100 172800.00000000   300.00000000 58946 0.0000000000000
+   32     1  2  3  4  5  6  7  8  9 10 11 12 13 14 15 16 17
+         18 19 20 21 22 23 24 25 26 27 28 29 30 31 32  0  0
+          0  0  0  0  0  0  0  0  0  0  0  0  0  0  0  0  0
+          0  0  0  0  0  0  0  0  0  0  0  0  0  0  0  0  0
+          0  0  0  0  0  0  0  0  0  0  0  0  0  0  0  0  0
++         2  2  2  2  2  2  2  2  2  2  2  2  2  2  2  2  2
++         2  2  2  2  2  2  2  2  2  2  2  2  2  2  2  0  0
++         0  0  0  0  0  0  0  0  0  0  0  0  0  0  0  0  0
++         0  0  0  0  0  0  0  0  0  0  0  0  0  0  0  0  0
++         0  0  0  0  0  0  0  0  0  0  0  0  0  0  0  0  0
%c cc cc ccc ccc cccc cccc cccc cccc ccccc ccccc ccccc ccccc
%c cc cc ccc ccc cccc cccc cccc cccc ccccc ccccc ccccc ccccc
%f  0.0000000  0.000000000  0.00000000000  0.000000000000000
%f  0.0000000  0.000000000  0.00000000000  0.000000000000000
%i    0    0    0    0      0      0      0      0         0
%i    0    0    0    0      0      0      0      0         0
/*      NGA, ST. LOUIS,MO.                                  
/*   EPHEMERIS COMPUTED FROM 2 DAYS OF DATA                 
/*   EPOCHA v5 SMOOTHER                                     
/*   G1762 IERS2010 SATAF SATAPC                            
*  2020  4  7 12 20  0.00000000
P  1 -22018.004471 -14708.317270   3533.715600   -350.787147                    
V  1  -2442.491993  -4458.413083 -31530.077733     -0.112084                    
P  2   8224.016770  19712.598457  16468.578058   -435.381302                    
V  2 -17195.922554  -9786.381513  21070.095321     -0.065320                    
P  3 -13369.239986  -9094.834883  21031.865219   -138.956884                    
V  3   4644.573382 -26407.960581  -8345.492092     -0.107220                    
P  4 -22264.962069  -2647.622697  14270.307864    -72.923890                    
V  4  16326.361365  -8079.286778  23963.599872     -0.051850                    
P  5   2850.905704  25065.941522  -8111.226092    -10.440225                    
V  5  -4191.412307   9762.128903  29369.530423     -0.006852                    
P  6  -2722.575474  15947.381588  21110.903793   -247.744728                    
V  6 -21283.560297 -16026.478475   9428.683166     -0.078995                    
P  7 -20077.043519   -494.343973 -17323.588198   -253.254234                    
V  7 -16360.554947 -15410.721553  18599.559843     -0.085868                    
P  8 -13411.935051  -9848.815466 -20739.996867    -29.822684                    
V  8  24048.248463 -10644.073300 -10238.055541     -0.012547                    
P  9 -25248.577436   6738.696810   4756.266651   -192.874909                    
V  9   4511.491762  -5081.485248  30800.235993     -0.078448                    
P 10  11549.795044 -20375.724538 -12213.014795   -302.614816                    
V 10    108.358992  15910.123715 -26481.679201     -0.122066                    
P 11 -20141.037584 -13206.998240 -11347.735022   -311.975689                    
V 11  14384.878680   -808.418243 -26013.935289      0.107245                    
P 12  11547.910550  11857.275782  20577.394804    131.964794                    
V 12  -6482.756075  25779.432919 -10929.279473     -0.043244                    
P 13   4689.442543  14384.254285 -21951.877576      0.223075                    
V 13 -26699.019882   6830.237876  -1149.624276      0.029850                    
P 14  10452.103559 -16503.356090  18250.534500    -21.170518                    
V 14  22041.414909  -5051.062407 -17704.131284      0.025238                    
P 15  15290.501292   9047.029641 -20151.718219   -239.626179                    
V 15 -21636.342328  12445.192239 -10617.746082      0.025924                    
P 16   -671.441147 -24605.302611  -9578.783944   -143.856956                    
V 16   5073.658582 -11091.896746  29218.834187     -0.043841                    
P 17 -19224.952745  14462.032180  11623.183301    244.887947                    
V 17 -13913.195494   2805.720779 -27551.601577      0.060804                    
P 18  21538.156821   4495.909274 -14910.649695    147.687319                    
V 18  13225.843993  13652.033179  23199.547811      0.138816                    
P 19 -13158.187270  15379.962325  16897.819819   -175.291878                    
V 19 -21564.318519   4521.480324 -20554.248986      0.051224                    
P 20  14696.751666 -10295.032271 -19598.105812    527.831147                    
V 20   1145.966120  24900.906880 -12483.477032     -0.000454                    
P 21  19311.099417  -1557.780980 -17260.162762    -17.363017                    
V 21  18176.493940  15233.707521  18416.655427      0.050266                    
P 22 -11320.024172 -17591.426039  16658.857580   -785.036213                    
V 22   3577.515924 -20601.110982 -19454.721352      0.004253                    
P 23 -24058.475015    639.525198  12077.792339   -123.953150                    
V 23  12564.283701  -7869.641729  25856.015415      0.029295                    
P 24  22374.279935  14611.681179   1221.016931    -11.380421                    
V 24   -423.213095   3684.462123 -30931.206696     -0.004935                    
P 25  15151.080800   -546.607817  21548.772106     -4.664123                    
V 25  -3763.242807  27690.470034   3575.662249      0.023440                    
P 26   4399.486944 -25997.476690   1896.144310    182.860093                    
V 26   3134.547568   2850.827139  31467.650034      0.073946                    
P 27  -1826.118887 -15100.748190 -21871.668004   -260.267532                    
V 27  25694.198062  -9645.447948   4870.677563     -0.105670                    
P 28 -12233.317044  21069.613227 -10158.119898    727.187294                    
V 28   1267.835293 -13793.347218 -28368.887822     -0.028472                    
P 29  25428.519901  -3215.601292   6959.340151    -75.302519                    
V 29  -7874.676574   4491.376272  30655.759291     -0.091554                    
P 30 -12294.023921  10000.107431 -21295.419647   -193.024498                    
V 30 -20490.738258 -17869.257601   3226.419084     -0.085425                    
P 31   1575.814979 -17117.167545  20082.496667    -34.480279                    
V 31  20550.173132  15536.762614  12055.026308     -0.024729                    
P 32  17857.764081 -15898.877267  11487.215575    254.282281                    
V 32  14441.566994  -3029.249783 -26962.799132      0.085566                    
EOF
